STARLINK-31463          
1 59296U 24056A   26068.45175171 -.00000796  00000+0 -19381-4 0  9990
2 59296  43.0002 228.1026 0002294 280.3359  79.7234 15.27565833111167
JINJUSAT-1B             
1 63210U 25052A   26068.66363707  .00019955  00000+0  68430-3 0  9998
2 63210  97.4113 325.4613 0005550  82.1930 277.9941 15.30194857 54866
